NORAD_CAT_ID,OBJECT_NAME,OBJECT_TYPE,EPOCH,MEAN_MOTION,ECCENTRICITY,INCLINATION,RA_OF_ASC_NODE,ARG_OF_PERICENTER,MEAN_ANOMALY,BSTAR,MEAN_MOTION_DOT,MEAN_MOTION_DDOT,TLE_LINE0,TLE_LINE1,TLE_LINE2,SEMIMAJOR_AXIS,PERIOD,APOGEE,PERIGEE,DECAYED
53832.0,STARLINK-4747,PAYLOAD,2024-08-13 20:05:13,15.08828386,5.32e-05,53.2231,355.5123,26.5049,333.5971,0.00026355,3.908e-05,0.0,0 STARLINK-4747,1 53832U 22114Q   24226.83696006  .00003908  00000-0  26355-3 0  9999,2 53832  53.2231 355.5123 0000532  26.5049 333.5971 15.08828386105814,6917.916,95.438,540.149,539.413,0.0
53832.0,STARLINK-4747,PAYLOAD,2024-08-14 13:34:27,15.08871231,0.0001364,53.2185,352.2425,62.6877,297.4254,0.0011541,0.00018143,0.0,0 STARLINK-4747,1 53832U 22114Q   24227.56559335  .00018143  00000-0  11541-2 0  9990,2 53832  53.2185 352.2425 0001364  62.6877 297.4254 15.08871231105926,6917.785,95.436,540.594,538.706,0.0
53832.0,STARLINK-4747,PAYLOAD,2024-08-14 15:09:50,15.08886327,0.0001268,53.2179,351.9419,89.3764,270.7373,0.0014129,0.00022298,0.0,0 STARLINK-4747,1 53832U 22114Q   24227.63182891  .00022298  00000-0  14129-2 0  9998,2 53832  53.2179 351.9419 0001268  89.3764 270.7373 15.08886327106471,6917.739,95.435,540.481,538.727,0.0
53832.0,STARLINK-4747,PAYLOAD,2024-08-14 19:55:58,15.089103,0.0001275,53.2178,351.047,82.6841,277.4296,0.0017498,0.00027724,0.0,0 STARLINK-4747,1 53832U 22114Q   24227.83053903  .00027724  00000-0  17498-2 0  9992,2 53832  53.2178 351.0470 0001275  82.6841 277.4296 15.08910300106509,6917.666,95.433,540.413,538.649,0.0
53832.0,STARLINK-4747,PAYLOAD,2024-08-15 15:00:36,15.08848878,0.0001134,53.2179,347.4805,108.6018,251.5097,0.0014216,0.00022415,0.0,0 STARLINK-4747,1 53832U 22114Q   24228.62542189  .00022415  00000-0  14216-2 0  9996,2 53832  53.2179 347.4805 0001134 108.6018 251.5097 15.08848878106625,6917.853,95.437,540.503,538.934,0.0
53832.0,STARLINK-4747,PAYLOAD,2024-08-15 19:46:45,15.08852519,0.0002159,53.2162,346.5861,97.9679,262.1558,0.00091471,0.00014305,0.0,0 STARLINK-4747,1 53832U 22114Q   24228.82414061  .00014305  00000-0  91471-3 0  9993,2 53832  53.2162 346.5861 0002159  97.9679 262.1558 15.08852519106111,6917.842,95.437,541.201,538.214,0.0
53832.0,STARLINK-4747,PAYLOAD,2024-08-16 00:32:54,15.08837994,0.0001767,53.2155,345.6914,49.9751,310.1396,0.00015234,2.137e-05,0.0,0 STARLINK-4747,1 53832U 22114Q   24229.02285030  .00002137  00000-0  15234-3 0  9991,2 53832  53.2155 345.6914 0001767  49.9751 310.1396 15.08837994106141,6917.887,95.438,540.974,538.529,0.0
53832.0,STARLINK-4747,PAYLOAD,2024-08-17 16:17:34,15.08832224,7.89e-05,53.2173,338.2621,243.874,116.2171,0.00047333,7.252e-05,0.0,0 STARLINK-4747,1 53832U 22114Q   24230.67887214  .00007252  00000-0  47333-3 0  9994,2 53832  53.2173 338.2621 0000789 243.8740 116.2171 15.08832224106394,6917.904,95.438,540.315,539.223,0.0
53832.0,STARLINK-4747,PAYLOAD,2024-08-18 06:36:04,15.08830893,0.0001967,53.2145,335.5867,79.9464,280.175,0.00033918,5.113e-05,0.0,0 STARLINK-4747,1 53832U 22114Q   24231.27504821  .00005113  00000-0  33918-3 0  9999,2 53832  53.2145 335.5867 0001967  79.9464 280.1750 15.08830893106489,6917.908,95.438,541.134,538.412,0.0
53832.0,STARLINK-4747,PAYLOAD,2024-08-18 14:33:00,15.0877255,0.0001355,53.2169,334.0966,100.6772,259.4372,0.0066053,0.00106227,0.0,0 STARLINK-4747,1 53832U 22114Q   24231.60625574  .00106227  00000-0  66053-2 0  9998,2 53832  53.2169 334.0966 0001355 100.6772 259.4372 15.08772550107074,6918.087,95.442,540.889,539.014,0.0
53832.0,STARLINK-4747,PAYLOAD,2024-08-19 12:48:22,15.08858663,9.57e-05,53.2169,329.9376,78.8649,281.2451,0.0003693,5.597e-05,0.0,0 STARLINK-4747,1 53832U 22114Q   24232.53359060  .00005597  00000-0  36930-3 0  9995,2 53832  53.2169 329.9376 0000957  78.8649 281.2451 15.08858663106674,6917.823,95.436,540.35,539.026,0.0
53832.0,STARLINK-4747,PAYLOAD,2024-08-20 12:39:08,15.08855717,0.0001674,53.2156,325.4789,73.6528,286.4648,0.00035515,5.371e-05,0.0,0 STARLINK-4747,1 53832U 22114Q   24233.52718487  .00005371  00000-0  35515-3 0  9995,2 53832  53.2156 325.4789 0001674  73.6528 286.4648 15.08855717106824,6917.832,95.437,540.855,538.539,0.0
53832.0,STARLINK-4747,PAYLOAD,2024-08-21 12:29:56,15.08837207,0.0001437,53.2165,321.0121,93.8186,266.297,0.00022752,3.335e-05,0.0,0 STARLINK-4747,1 53832U 22114Q   24234.52079009  .00003335  00000-0  22752-3 0  9993,2 53832  53.2165 321.0121 0001437  93.8186 266.2970 15.08837207106971,6917.889,95.438,540.748,538.76,0.0
